ONEWEB-0706             
1 61611U 24188T   25274.51297939 -.00000517  00000+0 -15169-2 0  9991
2 61611  87.8740  87.8469 0002280  99.7437 260.3948 13.10373498 49503
ONEWEB-0707             
1 61612U 24188U   25274.51962830 -.00000417  00000+0 -12305-2 0  9999
2 61612  87.8756  87.8132 0002191 101.9942 258.1431 13.10376146 49444
ONEWEB-0708             
1 61613U 24188V   25274.46153589  .00000424  00000+0  11795-2 0  9995
2 61613  87.8754  87.8670 0002455  92.3421 267.7988 13.10376322 49414
